{"type": "FeatureCollection", "features": [{"type": "Feature", "properties": {"norad_id": 26766, "name": "INTELSAT 10 (IS-10)", "group": "intelsat", "lat": -6.915109919411428, "lon": -66.36542540256634, "alt_km": 36092.85951353246, "timestamp": "2025-12-25T07:41:09.390222+00:00", "meta": {"OBJECT_NAME": "INTELSAT 10 (IS-10)", "OBJECT_ID": "2001-019A", "EPOCH": "2025-12-24T19:52:43.092192", "MEAN_MOTION": 0.9907234, "ECCENTRICITY": 0.00079377, "INCLINATION": 8.6564, "RA_OF_ASC_NODE": 61.0345, "ARG_OF_PERICENTER": 229.6069, "MEAN_ANOMALY": 187.8365, "EPHEMERIS_TYPE": 0, "CLASSIFICATION_TYPE": "U", "NORAD_CAT_ID": 26766, "ELEMENT_SET_NO": 999, "REV_AT_EPOCH": 4385, "BSTAR": 0, "MEAN_MOTION_DOT": 1.5e-07, "MEAN_MOTION_DDOT": 0}, "tle": {"line1": "1 26766U 01019A   25358.82827653  .00000015  00000+0  00000+0 0  9996", "line2": "2 26766   8.6564  61.0345 0007937 229.6069 187.8365  0.99072340 43859"}}, "geometry": {"type": "Point", "coordinates": [-66.36542540256634, -6.915109919411428]}}, {"type": "Feature", "properties": {"norad_id": 26900, "name": "INTELSAT 902 (IS-902)", "group": "intelsat", "lat": 5.672254688290584, "lon": 159.09440515858023, "alt_km": 35791.51996369444, "timestamp": "2025-12-25T07:41:09.390246+00:00", "meta": {"OBJECT_NAME": "INTELSAT 902 (IS-902)", "OBJECT_ID": "2001-039A", "EPOCH": "2025-12-15T13:09:02.081664", "MEAN_MOTION": 1.0027087, "ECCENTRICITY": 0.00045028, "INCLINATION": 5.6536, "RA_OF_ASC_NODE": 74.0372, "ARG_OF_PERICENTER": 189.6359, "MEAN_ANOMALY": 327.9329, "EPHEMERIS_TYPE": 0, "CLASSIFICATION_TYPE": "U", "NORAD_CAT_ID": 26900, "ELEMENT_SET_NO": 999, "REV_AT_EPOCH": 8885, "BSTAR": 0, "MEAN_MOTION_DOT": -2.65e-06, "MEAN_MOTION_DDOT": 0}, "tle": {"line1": "1 26900U 01039A   25349.54794076 -.00000265  00000+0  00000+0 0  9997", "line2": "2 26900   5.6536  74.0372 0004502 189.6359 327.9329  1.00270870 88858"}}, "geometry": {"type": "Point", "coordinates": [159.09440515858023, 5.672254688290584]}}, {"type": "Feature", "properties": {"norad_id": 27380, "name": "INTELSAT 904 (IS-904)", "group": "intelsat", "lat": 6.223161624785385, "lon": 177.9737406734541, "alt_km": 35790.88310550504, "timestamp": "2025-12-25T07:41:09.390263+00:00", "meta": {"OBJECT_NAME": "INTELSAT 904 (IS-904)", "OBJECT_ID": "2002-007A", "EPOCH": "2025-12-23T23:15:16.271712", "MEAN_MOTION": 1.00273356, "ECCENTRICITY": 0.00018804, "INCLINATION": 6.4809, "RA_OF_ASC_NODE": 71.3034, "ARG_OF_PERICENTER": 245.293, "MEAN_ANOMALY": 93.4817, "EPHEMERIS_TYPE": 0, "CLASSIFICATION_TYPE": "U", "NORAD_CAT_ID": 27380, "ELEMENT_SET_NO": 999, "REV_AT_EPOCH": 5000, "BSTAR": 0, "MEAN_MOTION_DOT": -2.07e-06, "MEAN_MOTION_DDOT": 0}, "tle": {"line1": "1 27380U 02007A   25357.96893833 -.00000207  00000+0  00000+0 0  9998", "line2": "2 27380   6.4809  71.3034 0001880 245.2930  93.4817  1.00273356 50003"}}, "geometry": {"type": "Point", "coordinates": [177.9737406734541, 6.223161624785385]}}, {"type": "Feature", "properties": {"norad_id": 27426, "name": "DIRECTV 5 (TEMPO 1)", "group": "intelsat", "lat": 1.6599815051668263, "lon": 99.18967366520802, "alt_km": 35799.892347254536, "timestamp": "2025-12-25T07:41:09.390277+00:00", "meta": {"OBJECT_NAME": "DIRECTV 5 (TEMPO 1)", "OBJECT_ID": "2002-023A", "EPOCH": "2025-12-24T10:03:10.210752", "MEAN_MOTION": 1.00271626, "ECCENTRICITY": 0.00033052, "INCLINATION": 4.4301, "RA_OF_ASC_NODE": 77.5162, "ARG_OF_PERICENTER": 203.2321, "MEAN_ANOMALY": 213.12, "EPHEMERIS_TYPE": 0, "CLASSIFICATION_TYPE": "U", "NORAD_CAT_ID": 27426, "ELEMENT_SET_NO": 999, "REV_AT_EPOCH": 8637, "BSTAR": 0, "MEAN_MOTION_DOT": -3.8e-07, "MEAN_MOTION_DDOT": 0}, "tle": {"line1": "1 27426U 02023A   25358.41886818 -.00000038  00000+0  00000+0 0  9995", "line2": "2 27426   4.4301  77.5162 0003305 203.2321 213.1200  1.00271626 86375"}}, "geometry": {"type": "Point", "coordinates": [99.18967366520802, 1.6599815051668263]}}, {"type": "Feature", "properties": {"norad_id": 27438, "name": "INTELSAT 905 (IS-905)", "group": "intelsat", "lat": 0.04496918720199159, "lon": 72.1946668864372, "alt_km": 35795.90332463604, "timestamp": "2025-12-25T07:41:09.390290+00:00", "meta": {"OBJECT_NAME": "INTELSAT 905 (IS-905)", "OBJECT_ID": "2002-027A", "EPOCH": "2025-12-23T05:41:27.377952", "MEAN_MOTION": 1.00273243, "ECCENTRICITY": 0.00027491, "INCLINATION": 6.3102, "RA_OF_ASC_NODE": 71.9349, "ARG_OF_PERICENTER": 206.5226, "MEAN_ANOMALY": 121.7385, "EPHEMERIS_TYPE": 0, "CLASSIFICATION_TYPE": "U", "NORAD_CAT_ID": 27438, "ELEMENT_SET_NO": 999, "REV_AT_EPOCH": 4959, "BSTAR": 0, "MEAN_MOTION_DOT": 1.12e-06, "MEAN_MOTION_DDOT": 0}, "tle": {"line1": "1 27438U 02027A   25357.23712243  .00000112  00000+0  00000+0 0  9993", "line2": "2 27438   6.3102  71.9349 0002749 206.5226 121.7385  1.00273243 49592"}}, "geometry": {"type": "Point", "coordinates": [72.1946668864372, 0.04496918720199159]}}, {"type": "Feature", "properties": {"norad_id": 27445, "name": "GALAXY 3C (G-3C)", "group": "intelsat", "lat": 1.8673389993291847, "lon": 114.45542123308036, "alt_km": 35783.142000976266, "timestamp": "2025-12-25T07:41:09.390303+00:00", "meta": {"OBJECT_NAME": "GALAXY 3C (G-3C)", "OBJECT_ID": "2002-030A", "EPOCH": "2025-12-24T12:38:58.653600", "MEAN_MOTION": 1.00271316, "ECCENTRICITY": 0.00010983, "INCLINATION": 3.2915, "RA_OF_ASC_NODE": 80.3801, "ARG_OF_PERICENTER": 85.9373, "MEAN_ANOMALY": 21.8718, "EPHEMERIS_TYPE": 0, "CLASSIFICATION_TYPE": "U", "NORAD_CAT_ID": 27445, "ELEMENT_SET_NO": 999, "REV_AT_EPOCH": 4474, "BSTAR": 0, "MEAN_MOTION_DOT": -1.33e-06, "MEAN_MOTION_DDOT": 0}, "tle": {"line1": "1 27445U 02030A   25358.52706775 -.00000133  00000+0  00000+0 0  9995", "line2": "2 27445   3.2915  80.3801 0001098  85.9373  21.8718  1.00271316 44744"}}, "geometry": {"type": "Point", "coordinates": [114.45542123308036, 1.8673389993291847]}}, {"type": "Feature", "properties": {"norad_id": 27513, "name": "INTELSAT 906 (IS-906)", "group": "intelsat", "lat": -1.7099238019747989, "lon": -86.57768494821482, "alt_km": 35760.42351141607, "timestamp": "2025-12-25T07:41:09.390316+00:00", "meta": {"OBJECT_NAME": "INTELSAT 906 (IS-906)", "OBJECT_ID": "2002-041A", "EPOCH": "2025-12-24T20:15:07.472736", "MEAN_MOTION": 1.0027071, "ECCENTRICITY": 0.00061876, "INCLINATION": 5.3608, "RA_OF_ASC_NODE": 75.0877, "ARG_OF_PERICENTER": 201.2987, "MEAN_ANOMALY": 185.1407, "EPHEMERIS_TYPE": 0, "CLASSIFICATION_TYPE": "U", "NORAD_CAT_ID": 27513, "ELEMENT_SET_NO": 999, "REV_AT_EPOCH": 8528, "BSTAR": 0, "MEAN_MOTION_DOT": 3.2e-07, "MEAN_MOTION_DDOT": 0}, "tle": {"line1": "1 27513U 02041A   25358.84383649  .00000032  00000+0  00000+0 0  9996", "line2": "2 27513   5.3608  75.0877 0006187 201.2987 185.1407  1.00270710 85284"}}, "geometry": {"type": "Point", "coordinates": [-86.57768494821482, -1.7099238019747989]}}, {"type": "Feature", "properties": {"norad_id": 27954, "name": "GALAXY 13 (HORIZONS-1)", "group": "intelsat", "lat": -0.4246676999033736, "lon": 59.352164425779705, "alt_km": 35794.46479926968, "timestamp": "2025-12-25T07:41:09.390328+00:00", "meta": {"OBJECT_NAME": "GALAXY 13 (HORIZONS-1)", "OBJECT_ID": "2003-044A", "EPOCH": "2025-12-24T17:31:23.154240", "MEAN_MOTION": 1.00271701, "ECCENTRICITY": 0.00023232, "INCLINATION": 0.9678, "RA_OF_ASC_NODE": 86.3132, "ARG_OF_PERICENTER": 184.6216, "MEAN_ANOMALY": 295.3815, "EPHEMERIS_TYPE": 0, "CLASSIFICATION_TYPE": "U", "NORAD_CAT_ID": 27954, "ELEMENT_SET_NO": 999, "REV_AT_EPOCH": 4482, "BSTAR": 0, "MEAN_MOTION_DOT": 1.53e-06, "MEAN_MOTION_DDOT": 0}, "tle": {"line1": "1 27954U 03044A   25358.73012910  .00000153  00000+0  00000+0 0  9991", "line2": "2 27954   0.9678  86.3132 0002323 184.6216 295.3815  1.00271701 44820"}}, "geometry": {"type": "Point", "coordinates": [59.352164425779705, -0.4246676999033736]}}, {"type": "Feature", "properties": {"norad_id": 28358, "name": "INTELSAT 10-02", "group": "intelsat", "lat": 0.002054015374227776, "lon": -151.600742922431, "alt_km": 35786.246964057565, "timestamp": "2025-12-25T07:41:09.390341+00:00", "meta": {"OBJECT_NAME": "INTELSAT 10-02", "OBJECT_ID": "2004-022A", "EPOCH": "2025-12-24T21:39:14.417280", "MEAN_MOTION": 1.00272147, "ECCENTRICITY": 0.00011275, "INCLINATION": 0.0167, "RA_OF_ASC_NODE": 43.3909, "ARG_OF_PERICENTER": 258.5926, "MEAN_ANOMALY": 115.5436, "EPHEMERIS_TYPE": 0, "CLASSIFICATION_TYPE": "U", "NORAD_CAT_ID": 28358, "ELEMENT_SET_NO": 999, "REV_AT_EPOCH": 7880, "BSTAR": 0, "MEAN_MOTION_DOT": 1.1e-07, "MEAN_MOTION_DDOT": 0}, "tle": {"line1": "1 28358U 04022A   25358.90225020  .00000011  00000+0  00000+0 0  9997", "line2": "2 28358   0.0167  43.3909 0001127 258.5926 115.5436  1.00272147 78800"}}, "geometry": {"type": "Point", "coordinates": [-151.600742922431, 0.002054015374227776]}}, {"type": "Feature", "properties": {"norad_id": 28626, "name": "XM-3 (RHYTHM)", "group": "intelsat", "lat": -0.025045591949050674, "lon": -96.17565984843945, "alt_km": 36161.05699378286, "timestamp": "2025-12-25T07:41:09.390353+00:00", "meta": {"OBJECT_NAME": "XM-3 (RHYTHM)", "OBJECT_ID": "2005-008A", "EPOCH": "2025-12-24T20:13:00.176160", "MEAN_MOTION": 0.9895011, "ECCENTRICITY": 0.00021647, "INCLINATION": 0.204, "RA_OF_ASC_NODE": 82.2123, "ARG_OF_PERICENTER": 274.0481, "MEAN_ANOMALY": 97.3595, "EPHEMERIS_TYPE": 0, "CLASSIFICATION_TYPE": "U", "NORAD_CAT_ID": 28626, "ELEMENT_SET_NO": 999, "REV_AT_EPOCH": 4087, "BSTAR": 0, "MEAN_MOTION_DOT": 9.7e-07, "MEAN_MOTION_DDOT": 0}, "tle": {"line1": "1 28626U 05008A   25358.84236315  .00000097  00000+0  00000+0 0  9996", "line2": "2 28626   0.2040  82.2123 0002164 274.0481  97.3595  0.98950110 40879"}}, "geometry": {"type": "Point", "coordinates": [-96.17565984843945, -0.025045591949050674]}}]}